CCSDS_OMM_VERS = 2.0
CREATION_DATE  = 
ORIGINATOR     = 

OBJECT_NAME    = SL-4 R/B
OBJECT_ID      = 2014-021B
CENTER_NAME    = EARTH
REF_FRAME      = TEME
TIME_SYSTEM    = UTC
MEAN_ELEMENT_THEORY = SGP/SGP4

EPOCH          = 2025-12-28T14:41:06.260064
MEAN_MOTION    = 15.37049894
ECCENTRICITY   = .0100466
INCLINATION    = 51.6088
RA_OF_ASC_NODE = 323.4367
ARG_OF_PERICENTER = 203.5378
MEAN_ANOMALY   = 156.0991

EPHEMERIS_TYPE = 0
CLASSIFICATION_TYPE = U
NORAD_CAT_ID   = 39679
ELEMENT_SET_NO = 999
REV_AT_EPOCH   = 64533
BSTAR          = .31276E-3
MEAN_MOTION_DOT = .1324E-3
MEAN_MOTION_DDOT = 0

CCSDS_OMM_VERS = 2.0
CREATION_DATE  = 
ORIGINATOR     = 

OBJECT_NAME    = ALOS-2
OBJECT_ID      = 2014-029A
CENTER_NAME    = EARTH
REF_FRAME      = TEME
TIME_SYSTEM    = UTC
MEAN_ELEMENT_THEORY = SGP/SGP4

EPOCH          = 2025-12-28T21:46:30.781344
MEAN_MOTION    = 14.79476895
ECCENTRICITY   = .0001471
INCLINATION    = 97.9215
RA_OF_ASC_NODE = 97.5226
ARG_OF_PERICENTER = 96.8103
MEAN_ANOMALY   = 263.3276

EPHEMERIS_TYPE = 0
CLASSIFICATION_TYPE = U
NORAD_CAT_ID   = 39766
ELEMENT_SET_NO = 999
REV_AT_EPOCH   = 62640
BSTAR          = .39119545E-3
MEAN_MOTION_DOT = .2872E-4
MEAN_MOTION_DDOT = 0

CCSDS_OMM_VERS = 2.0
CREATION_DATE  = 
ORIGINATOR     = 

OBJECT_NAME    = YAOGAN-29
OBJECT_ID      = 2015-069A
CENTER_NAME    = EARTH
REF_FRAME      = TEME
TIME_SYSTEM    = UTC
MEAN_ELEMENT_THEORY = SGP/SGP4

EPOCH          = 2025-12-28T22:43:05.545344
MEAN_MOTION    = 14.82898610
ECCENTRICITY   = .0001161
INCLINATION    = 98.0212
RA_OF_ASC_NODE = 26.1690
ARG_OF_PERICENTER = 158.7059
MEAN_ANOMALY   = 201.4203

EPHEMERIS_TYPE = 0
CLASSIFICATION_TYPE = U
NORAD_CAT_ID   = 41038
ELEMENT_SET_NO = 999
REV_AT_EPOCH   = 54539
BSTAR          = .30802915E-4
MEAN_MOTION_DOT = .196E-5
MEAN_MOTION_DDOT = 0

CCSDS_OMM_VERS = 2.0
CREATION_DATE  = 
ORIGINATOR     = 

OBJECT_NAME    = ASTRO-H (HITOMI)
OBJECT_ID      = 2016-012A
CENTER_NAME    = EARTH
REF_FRAME      = TEME
TIME_SYSTEM    = UTC
MEAN_ELEMENT_THEORY = SGP/SGP4

EPOCH          = 2025-12-28T22:59:21.708960
MEAN_MOTION    = 15.09466005
ECCENTRICITY   = .0009652
INCLINATION    = 30.9996
RA_OF_ASC_NODE = 92.8074
ARG_OF_PERICENTER = 341.3453
MEAN_ANOMALY   = 18.6831

EPHEMERIS_TYPE = 0
CLASSIFICATION_TYPE = U
NORAD_CAT_ID   = 41337
ELEMENT_SET_NO = 999
REV_AT_EPOCH   = 54153
BSTAR          = .32727471E-3
MEAN_MOTION_DOT = .5469E-4
MEAN_MOTION_DDOT = 0

CCSDS_OMM_VERS = 2.0
CREATION_DATE  = 
ORIGINATOR     = 

OBJECT_NAME    = HXMT (HUIYAN)
OBJECT_ID      = 2017-034A
CENTER_NAME    = EARTH
REF_FRAME      = TEME
TIME_SYSTEM    = UTC
MEAN_ELEMENT_THEORY = SGP/SGP4

EPOCH          = 2025-12-28T20:43:38.413920
MEAN_MOTION    = 15.16436630
ECCENTRICITY   = .00316393
INCLINATION    = 43.0148
RA_OF_ASC_NODE = 50.1415
ARG_OF_PERICENTER = 148.9429
MEAN_ANOMALY   = 211.3297

EPHEMERIS_TYPE = 0
CLASSIFICATION_TYPE = U
NORAD_CAT_ID   = 42758
ELEMENT_SET_NO = 999
REV_AT_EPOCH   = 47178
BSTAR          = .43985698E-3
MEAN_MOTION_DOT = .8589E-4
MEAN_MOTION_DDOT = 0

CCSDS_OMM_VERS = 2.0
CREATION_DATE  = 
ORIGINATOR     = 

OBJECT_NAME    = CZ-2C R/B
OBJECT_ID      = 2018-054D
CENTER_NAME    = EARTH
REF_FRAME      = TEME
TIME_SYSTEM    = UTC
MEAN_ELEMENT_THEORY = SGP/SGP4

EPOCH          = 2025-12-28T12:13:50.269440
MEAN_MOTION    = 15.77586265
ECCENTRICITY   = .00139282
INCLINATION    = 35.1327
RA_OF_ASC_NODE = 73.6902
ARG_OF_PERICENTER = 300.0344
MEAN_ANOMALY   = 59.9008

EPHEMERIS_TYPE = 0
CLASSIFICATION_TYPE = U
NORAD_CAT_ID   = 43521
ELEMENT_SET_NO = 999
REV_AT_EPOCH   = 41754
BSTAR          = .88895813E-3
MEAN_MOTION_DOT = .157696E-2
MEAN_MOTION_DDOT = 0

CCSDS_OMM_VERS = 2.0
CREATION_DATE  = 
ORIGINATOR     = 

OBJECT_NAME    = SAOCOM 1A
OBJECT_ID      = 2018-076A
CENTER_NAME    = EARTH
REF_FRAME      = TEME
TIME_SYSTEM    = UTC
MEAN_ELEMENT_THEORY = SGP/SGP4

EPOCH          = 2025-12-28T22:36:26.080128
MEAN_MOTION    = 14.82151006
ECCENTRICITY   = .00013169
INCLINATION    = 97.8846
RA_OF_ASC_NODE = 187.1283
ARG_OF_PERICENTER = 85.6869
MEAN_ANOMALY   = 274.4495

EPHEMERIS_TYPE = 0
CLASSIFICATION_TYPE = U
NORAD_CAT_ID   = 43641
ELEMENT_SET_NO = 999
REV_AT_EPOCH   = 39088
BSTAR          = .50892073E-4
MEAN_MOTION_DOT = .353E-5
MEAN_MOTION_DDOT = 0

CCSDS_OMM_VERS = 2.0
CREATION_DATE  = 
ORIGINATOR     = 

OBJECT_NAME    = H-2A R/B
OBJECT_ID      = 2018-084L
CENTER_NAME    = EARTH
REF_FRAME      = TEME
TIME_SYSTEM    = UTC
MEAN_ELEMENT_THEORY = SGP/SGP4

EPOCH          = 2025-12-28T19:56:32.379648
MEAN_MOTION    = 15.37991469
ECCENTRICITY   = .0026353
INCLINATION    = 98.8770
RA_OF_ASC_NODE = 200.2523
ARG_OF_PERICENTER = 269.9742
MEAN_ANOMALY   = 89.8479

EPHEMERIS_TYPE = 0
CLASSIFICATION_TYPE = U
NORAD_CAT_ID   = 43682
ELEMENT_SET_NO = 999
REV_AT_EPOCH   = 39487
BSTAR          = .65187279E-3
MEAN_MOTION_DOT = .24592E-3
MEAN_MOTION_DDOT = 0

CCSDS_OMM_VERS = 2.0
CREATION_DATE  = 
ORIGINATOR     = 

OBJECT_NAME    = SAOCOM 1B
OBJECT_ID      = 2020-059A
CENTER_NAME    = EARTH
REF_FRAME      = TEME
TIME_SYSTEM    = UTC
MEAN_ELEMENT_THEORY = SGP/SGP4

EPOCH          = 2025-12-28T23:21:25.946208
MEAN_MOTION    = 14.82156093
ECCENTRICITY   = .00014599
INCLINATION    = 97.8846
RA_OF_ASC_NODE = 186.2585
ARG_OF_PERICENTER = 83.3777
MEAN_ANOMALY   = 276.7602

EPHEMERIS_TYPE = 0
CLASSIFICATION_TYPE = U
NORAD_CAT_ID   = 46265
ELEMENT_SET_NO = 999
REV_AT_EPOCH   = 28827
BSTAR          = .72523466E-4
MEAN_MOTION_DOT = .525E-5
MEAN_MOTION_DDOT = 0

CCSDS_OMM_VERS = 2.0
CREATION_DATE  = 
ORIGINATOR     = 

OBJECT_NAME    = CSS (TIANHE)
OBJECT_ID      = 2021-035A
CENTER_NAME    = EARTH
REF_FRAME      = TEME
TIME_SYSTEM    = UTC
MEAN_ELEMENT_THEORY = SGP/SGP4

EPOCH          = 2025-12-28T18:55:33.838176
MEAN_MOTION    = 15.59820251
ECCENTRICITY   = .00091371
INCLINATION    = 41.4673
RA_OF_ASC_NODE = 279.2286
ARG_OF_PERICENTER = 170.0134
MEAN_ANOMALY   = 190.0887

EPHEMERIS_TYPE = 0
CLASSIFICATION_TYPE = U
NORAD_CAT_ID   = 48274
ELEMENT_SET_NO = 999
REV_AT_EPOCH   = 26653
BSTAR          = .28591817E-3
MEAN_MOTION_DOT = .23392E-3
MEAN_MOTION_DDOT = 0

CCSDS_OMM_VERS = 2.0
CREATION_DATE  = 
ORIGINATOR     = 

OBJECT_NAME    = COSMOS 2550
OBJECT_ID      = 2021-056A
CENTER_NAME    = EARTH
REF_FRAME      = TEME
TIME_SYSTEM    = UTC
MEAN_ELEMENT_THEORY = SGP/SGP4

EPOCH          = 2025-12-28T01:11:45.246336
MEAN_MOTION    = 15.33830504
ECCENTRICITY   = .00083728
INCLINATION    = 67.1448
RA_OF_ASC_NODE = 257.6258
ARG_OF_PERICENTER = 269.7459
MEAN_ANOMALY   = 90.2736

EPHEMERIS_TYPE = 0
CLASSIFICATION_TYPE = U
NORAD_CAT_ID   = 48865
ELEMENT_SET_NO = 999
REV_AT_EPOCH   = 25247
BSTAR          = .1296151E-5
MEAN_MOTION_DOT = -.149E-5
MEAN_MOTION_DDOT = 0

CCSDS_OMM_VERS = 2.0
CREATION_DATE  = 
ORIGINATOR     = 

OBJECT_NAME    = CZ-2C R/B
OBJECT_ID      = 2022-058K
CENTER_NAME    = EARTH
REF_FRAME      = TEME
TIME_SYSTEM    = UTC
MEAN_ELEMENT_THEORY = SGP/SGP4

EPOCH          = 2025-12-28T06:58:23.761056
MEAN_MOTION    = 15.49329420
ECCENTRICITY   = .0044355
INCLINATION    = 50.1925
RA_OF_ASC_NODE = 324.1990
ARG_OF_PERICENTER = 262.4097
MEAN_ANOMALY   = 97.1832

EPHEMERIS_TYPE = 0
CLASSIFICATION_TYPE = U
NORAD_CAT_ID   = 52794
ELEMENT_SET_NO = 999
REV_AT_EPOCH   = 19904
BSTAR          = .70496E-3
MEAN_MOTION_DOT = .40673E-3
MEAN_MOTION_DDOT = 0

