SL-4 R/B                
1 39679U 14021B   25362.61187801  .00013240  00000+0  31276-3 0  9993
2 39679  51.6088 323.4367 0100466 203.5378 156.0991 15.37049894645339
ALOS-2                  
1 39766U 14029A   25362.90730071  .00002872  00000+0  39120-3 0  9998
2 39766  97.9215  97.5226 0001471  96.8103 263.3276 14.79476895626404
YAOGAN-29               
1 41038U 15069A   25362.94659196  .00000196  00000+0  30803-4 0  9997
2 41038  98.0212  26.1690 0001161 158.7059 201.4203 14.82898610545393
ASTRO-H (HITOMI)        
1 41337U 16012A   25362.95789015  .00005469  00000+0  32727-3 0  9997
2 41337  30.9996  92.8074 0009652 341.3453  18.6831 15.09466005541532
HXMT (HUIYAN)           
1 42758U 17034A   25362.86363905  .00008589  00000+0  43986-3 0  9991
2 42758  43.0148  50.1415 0031639 148.9429 211.3297 15.16436630471780
CZ-2C R/B               
1 43521U 18054D   25362.50960960  .00157696  00000+0  88896-3 0  9991
2 43521  35.1327  73.6902 0013928 300.0344  59.9008 15.77586265417546
SAOCOM 1A               
1 43641U 18076A   25362.94196852  .00000353  00000+0  50892-4 0  9990
2 43641  97.8846 187.1283 0001316  85.6869 274.4495 14.82151006390886
H-2A R/B                
1 43682U 18084L   25362.83093032  .00024592  00000+0  65187-3 0  9991
2 43682  98.8770 200.2523 0026353 269.9742  89.8479 15.37991469394876
SAOCOM 1B               
1 46265U 20059A   25362.97321697  .00000525  00000+0  72523-4 0  9995
2 46265  97.8846 186.2585 0001459  83.3777 276.7602 14.82156093288272
CSS (TIANHE)            
1 48274U 21035A   25362.78858609  .00023392  00000+0  28592-3 0  9992
2 48274  41.4673 279.2286 0009137 170.0134 190.0887 15.59820251266537
COSMOS 2550             
1 48865U 21056A   25362.04982924 -.00000149  00000+0  12962-5 0  9990
2 48865  67.1448 257.6258 0008372 269.7459  90.2736 15.33830504252479
CZ-2C R/B               
1 52794U 22058K   25362.29055279  .00040673  00000+0  70496-3 0  9999
2 52794  50.1925 324.1990 0044355 262.4097  97.1832 15.49329420199042
